KUIPER-00044            
1 64505U 25134F   26197.56503017  .00001519  00000+0  22823-3 0  9992
2 64505  51.9008  35.6676 0000787 128.7902 231.3131 14.79935897 58985
KUIPER-00046            
1 64506U 25134G   26197.53396411  .00001530  00000+0  22961-3 0  9994
2 64506  51.8997  33.2819 0000707 111.9712 248.1325 14.79931325 59018
KUIPER-00047            
1 64507U 25134H   26197.86750743  .00001657  00000+0  24625-3 0  9992
2 64507  51.9013   4.3311 0000658 120.7248 239.3779 14.79938121 59445
KUIPER-00048            
1 64508U 25134J   26197.63112582  .00000093  00000+0  41193-4 0  9994
2 64508  51.9010   5.3913 0000377 147.3640 212.7346 14.79977017 59410
KUIPER-00049            
1 64509U 25134K   26197.65143616  .00000195  00000+0  54568-4 0  9992
2 64509  51.9004  17.7648 0000638 111.2295 248.8736 14.79930221 59242
KUIPER-00050            
1 64510U 25134L   26197.67030730  .00001588  00000+0  23718-3 0  9997
2 64510  51.9024   0.2041 0000647 125.5580 234.5443 14.79940898 59490
KUIPER-00051            
1 64511U 25134M   26197.83003804  .00000068  00000+0  37910-4 0  9990
2 64511  51.9021  15.6697 0000764 118.3952 241.7088 14.79935764 59286
KUIPER-00053            
1 64513U 25134P   26197.64628345  .00009056  00000+0  11667-2 0  9999
2 64513  51.9021  11.7063 0000362 331.0149  29.0794 14.81656944 59327
KUIPER-00054            
1 64514U 25134Q   26197.62848789  .00001540  00000+0  23088-3 0  9995
2 64514  51.9000   7.8796 0000773 124.6938 235.4097 14.79941227 59374
KUIPER-00055            
1 64515U 25134R   26197.71347001  .00001565  00000+0  23423-3 0  9997
2 64515  51.9032 320.1378 0000477 123.3388 236.7620 14.79937841 60053
KUIPER-00056            
1 64516U 25134S   26197.65684270  .00001550  00000+0  23221-3 0  9993
2 64516  51.9039  12.8500 0000635 120.9691 239.1333 14.79937431 59319
KUIPER-00057            
1 64517U 25134T   26197.51367792  .00001755  00000+0  25917-3 0  9997
2 64517  51.9001  20.9128 0000740 123.7292 236.3741 14.79939154 59181
KUIPER-00058            
1 64518U 25134U   26197.48531247  .00001482  00000+0  22339-3 0  9994
2 64518  51.9024  16.0094 0000648 119.0699 241.0328 14.79929783 59250
KUIPER-00059            
1 64519U 25134V   26197.49070376  .00001469  00000+0  22161-3 0  9995
2 64519  51.9005  11.0259 0000642 118.6294 241.4733 14.79937576 59329
KUIPER-00060            
1 64520U 25134W   26197.65953734  .00001688  00000+0  25034-3 0  9998
2 64520  51.9042  10.3441 0000650 114.7154 245.3876 14.79938806 59337
KUIPER-00061            
1 64521U 25134X   26197.82031378  .00001593  00000+0  23799-3 0  9990
2 64521  51.9019  17.0848 0000854 115.2780 244.8271 14.79924978 59253
