{"fetched_at":"2026-07-17T06:37:49.595Z","source":"https://celestrak.org/NORAD/elements/gp.php?GROUP=kuiper&FORMAT=JSON","constellation":"kuiper","records":[{"OBJECT_NAME":"KUIPER-00044","OBJECT_ID":"2025-134F","EPOCH":"2026-07-16T13:33:38.606688","CLASSIFICATION_TYPE":"U","MEAN_MOTION":14.79935897,"ECCENTRICITY":0.0000787,"INCLINATION":51.9008,"RA_OF_ASC_NODE":35.6676,"ARG_OF_PERICENTER":128.7902,"MEAN_ANOMALY":231.3131,"EPHEMERIS_TYPE":0,"NORAD_CAT_ID":64505,"ELEMENT_SET_NO":999,"REV_AT_EPOCH":5898,"BSTAR":0.00022823,"MEAN_MOTION_DOT":0.00001519,"MEAN_MOTION_DDOT":0},{"OBJECT_NAME":"KUIPER-00046","OBJECT_ID":"2025-134G","EPOCH":"2026-07-16T12:48:54.499104","CLASSIFICATION_TYPE":"U","MEAN_MOTION":14.79931325,"ECCENTRICITY":0.0000707,"INCLINATION":51.8997,"RA_OF_ASC_NODE":33.2819,"ARG_OF_PERICENTER":111.9712,"MEAN_ANOMALY":248.1325,"EPHEMERIS_TYPE":0,"NORAD_CAT_ID":64506,"ELEMENT_SET_NO":999,"REV_AT_EPOCH":5901,"BSTAR":0.00022961,"MEAN_MOTION_DOT":0.0000153,"MEAN_MOTION_DDOT":0},{"OBJECT_NAME":"KUIPER-00047","OBJECT_ID":"2025-134H","EPOCH":"2026-07-16T20:49:12.641952","CLASSIFICATION_TYPE":"U","MEAN_MOTION":14.79938121,"ECCENTRICITY":0.0000658,"INCLINATION":51.9013,"RA_OF_ASC_NODE":4.3311,"ARG_OF_PERICENTER":120.7248,"MEAN_ANOMALY":239.3779,"EPHEMERIS_TYPE":0,"NORAD_CAT_ID":64507,"ELEMENT_SET_NO":999,"REV_AT_EPOCH":5944,"BSTAR":0.00024625,"MEAN_MOTION_DOT":0.00001657,"MEAN_MOTION_DDOT":0},{"OBJECT_NAME":"KUIPER-00048","OBJECT_ID":"2025-134J","EPOCH":"2026-07-16T15:08:49.270848","CLASSIFICATION_TYPE":"U","MEAN_MOTION":14.79977017,"ECCENTRICITY":0.0000377,"INCLINATION":51.901,"RA_OF_ASC_NODE":5.3913,"ARG_OF_PERICENTER":147.364,"MEAN_ANOMALY":212.7346,"EPHEMERIS_TYPE":0,"NORAD_CAT_ID":64508,"ELEMENT_SET_NO":999,"REV_AT_EPOCH":5941,"BSTAR":0.000041193,"MEAN_MOTION_DOT":9.3e-7,"MEAN_MOTION_DDOT":0},{"OBJECT_NAME":"KUIPER-00049","OBJECT_ID":"2025-134K","EPOCH":"2026-07-16T15:38:04.084224","CLASSIFICATION_TYPE":"U","MEAN_MOTION":14.79930221,"ECCENTRICITY":0.0000638,"INCLINATION":51.9004,"RA_OF_ASC_NODE":17.7648,"ARG_OF_PERICENTER":111.2295,"MEAN_ANOMALY":248.8736,"EPHEMERIS_TYPE":0,"NORAD_CAT_ID":64509,"ELEMENT_SET_NO":999,"REV_AT_EPOCH":5924,"BSTAR":0.000054568,"MEAN_MOTION_DOT":0.00000195,"MEAN_MOTION_DDOT":0},{"OBJECT_NAME":"KUIPER-00050","OBJECT_ID":"2025-134L","EPOCH":"2026-07-16T16:05:14.550720","CLASSIFICATION_TYPE":"U","MEAN_MOTION":14.79940898,"ECCENTRICITY":0.0000647,"INCLINATION":51.9024,"RA_OF_ASC_NODE":0.2041,"ARG_OF_PERICENTER":125.558,"MEAN_ANOMALY":234.5443,"EPHEMERIS_TYPE":0,"NORAD_CAT_ID":64510,"ELEMENT_SET_NO":999,"REV_AT_EPOCH":5949,"BSTAR":0.00023718,"MEAN_MOTION_DOT":0.00001588,"MEAN_MOTION_DDOT":0},{"OBJECT_NAME":"KUIPER-00051","OBJECT_ID":"2025-134M","EPOCH":"2026-07-16T19:55:15.286656","CLASSIFICATION_TYPE":"U","MEAN_MOTION":14.79935764,"ECCENTRICITY":0.0000764,"INCLINATION":51.9021,"RA_OF_ASC_NODE":15.6697,"ARG_OF_PERICENTER":118.3952,"MEAN_ANOMALY":241.7088,"EPHEMERIS_TYPE":0,"NORAD_CAT_ID":64511,"ELEMENT_SET_NO":999,"REV_AT_EPOCH":5928,"BSTAR":0.00003791,"MEAN_MOTION_DOT":6.8e-7,"MEAN_MOTION_DDOT":0},{"OBJECT_NAME":"KUIPER-00053","OBJECT_ID":"2025-134P","EPOCH":"2026-07-16T15:30:38.890080","CLASSIFICATION_TYPE":"U","MEAN_MOTION":14.81656944,"ECCENTRICITY":0.0000362,"INCLINATION":51.9021,"RA_OF_ASC_NODE":11.7063,"ARG_OF_PERICENTER":331.0149,"MEAN_ANOMALY":29.0794,"EPHEMERIS_TYPE":0,"NORAD_CAT_ID":64513,"ELEMENT_SET_NO":999,"REV_AT_EPOCH":5932,"BSTAR":0.0011667,"MEAN_MOTION_DOT":0.00009056,"MEAN_MOTION_DDOT":0},{"OBJECT_NAME":"KUIPER-00054","OBJECT_ID":"2025-134Q","EPOCH":"2026-07-16T15:05:01.353696","CLASSIFICATION_TYPE":"U","MEAN_MOTION":14.79941227,"ECCENTRICITY":0.0000773,"INCLINATION":51.9,"RA_OF_ASC_NODE":7.8796,"ARG_OF_PERICENTER":124.6938,"MEAN_ANOMALY":235.4097,"EPHEMERIS_TYPE":0,"NORAD_CAT_ID":64514,"ELEMENT_SET_NO":999,"REV_AT_EPOCH":5937,"BSTAR":0.00023088,"MEAN_MOTION_DOT":0.0000154,"MEAN_MOTION_DDOT":0},{"OBJECT_NAME":"KUIPER-00055","OBJECT_ID":"2025-134R","EPOCH":"2026-07-16T17:07:23.808864","CLASSIFICATION_TYPE":"U","MEAN_MOTION":14.79937841,"ECCENTRICITY":0.0000477,"INCLINATION":51.9032,"RA_OF_ASC_NODE":320.1378,"ARG_OF_PERICENTER":123.3388,"MEAN_ANOMALY":236.762,"EPHEMERIS_TYPE":0,"NORAD_CAT_ID":64515,"ELEMENT_SET_NO":999,"REV_AT_EPOCH":6005,"BSTAR":0.00023423,"MEAN_MOTION_DOT":0.00001565,"MEAN_MOTION_DDOT":0},{"OBJECT_NAME":"KUIPER-00056","OBJECT_ID":"2025-134S","EPOCH":"2026-07-16T15:45:51.209280","CLASSIFICATION_TYPE":"U","MEAN_MOTION":14.79937431,"ECCENTRICITY":0.0000635,"INCLINATION":51.9039,"RA_OF_ASC_NODE":12.85,"ARG_OF_PERICENTER":120.9691,"MEAN_ANOMALY":239.1333,"EPHEMERIS_TYPE":0,"NORAD_CAT_ID":64516,"ELEMENT_SET_NO":999,"REV_AT_EPOCH":5931,"BSTAR":0.00023221,"MEAN_MOTION_DOT":0.0000155,"MEAN_MOTION_DDOT":0},{"OBJECT_NAME":"KUIPER-00057","OBJECT_ID":"2025-134T","EPOCH":"2026-07-16T12:19:41.772288","CLASSIFICATION_TYPE":"U","MEAN_MOTION":14.79939154,"ECCENTRICITY":0.000074,"INCLINATION":51.9001,"RA_OF_ASC_NODE":20.9128,"ARG_OF_PERICENTER":123.7292,"MEAN_ANOMALY":236.3741,"EPHEMERIS_TYPE":0,"NORAD_CAT_ID":64517,"ELEMENT_SET_NO":999,"REV_AT_EPOCH":5918,"BSTAR":0.00025917,"MEAN_MOTION_DOT":0.00001755,"MEAN_MOTION_DDOT":0},{"OBJECT_NAME":"KUIPER-00058","OBJECT_ID":"2025-134U","EPOCH":"2026-07-16T11:38:50.997408","CLASSIFICATION_TYPE":"U","MEAN_MOTION":14.79929783,"ECCENTRICITY":0.0000648,"INCLINATION":51.9024,"RA_OF_ASC_NODE":16.0094,"ARG_OF_PERICENTER":119.0699,"MEAN_ANOMALY":241.0328,"EPHEMERIS_TYPE":0,"NORAD_CAT_ID":64518,"ELEMENT_SET_NO":999,"REV_AT_EPOCH":5925,"BSTAR":0.00022339,"MEAN_MOTION_DOT":0.00001482,"MEAN_MOTION_DDOT":0},{"OBJECT_NAME":"KUIPER-00059","OBJECT_ID":"2025-134V","EPOCH":"2026-07-16T11:46:36.804864","CLASSIFICATION_TYPE":"U","MEAN_MOTION":14.79937576,"ECCENTRICITY":0.0000642,"INCLINATION":51.9005,"RA_OF_ASC_NODE":11.0259,"ARG_OF_PERICENTER":118.6294,"MEAN_ANOMALY":241.4733,"EPHEMERIS_TYPE":0,"NORAD_CAT_ID":64519,"ELEMENT_SET_NO":999,"REV_AT_EPOCH":5932,"BSTAR":0.00022161,"MEAN_MOTION_DOT":0.00001469,"MEAN_MOTION_DDOT":0},{"OBJECT_NAME":"KUIPER-00060","OBJECT_ID":"2025-134W","EPOCH":"2026-07-16T15:49:44.026176","CLASSIFICATION_TYPE":"U","MEAN_MOTION":14.79938806,"ECCENTRICITY":0.000065,"INCLINATION":51.9042,"RA_OF_ASC_NODE":10.3441,"ARG_OF_PERICENTER":114.7154,"MEAN_ANOMALY":245.3876,"EPHEMERIS_TYPE":0,"NORAD_CAT_ID":64520,"ELEMENT_SET_NO":999,"REV_AT_EPOCH":5933,"BSTAR":0.00025034,"MEAN_MOTION_DOT":0.00001688,"MEAN_MOTION_DDOT":0},{"OBJECT_NAME":"KUIPER-00061","OBJECT_ID":"2025-134X","EPOCH":"2026-07-16T19:41:15.110592","CLASSIFICATION_TYPE":"U","MEAN_MOTION":14.79924978,"ECCENTRICITY":0.0000854,"INCLINATION":51.9019,"RA_OF_ASC_NODE":17.0848,"ARG_OF_PERICENTER":115.278,"MEAN_ANOMALY":244.8271,"EPHEMERIS_TYPE":0,"NORAD_CAT_ID":64521,"ELEMENT_SET_NO":999,"REV_AT_EPOCH":5925,"BSTAR":0.00023799,"MEAN_MOTION_DOT":0.00001593,"MEAN_MOTION_DDOT":0}]}
